CCSDS_OMM_VERS = 2.0
CREATION_DATE  = 
ORIGINATOR     = 

OBJECT_NAME    = SL-14 R/B
OBJECT_ID      = 1991-042B
CENTER_NAME    = EARTH
REF_FRAME      = TEME
TIME_SYSTEM    = UTC
MEAN_ELEMENT_THEORY = SGP/SGP4

EPOCH          = 2025-12-30T21:07:06.319200
MEAN_MOTION    = 14.81758246
ECCENTRICITY   = .0018542
INCLINATION    = 82.4936
RA_OF_ASC_NODE = 284.7142
ARG_OF_PERICENTER = 105.6802
MEAN_ANOMALY   = 254.6459

EPHEMERIS_TYPE = 0
CLASSIFICATION_TYPE = U
NORAD_CAT_ID   = 21423
ELEMENT_SET_NO = 999
REV_AT_EPOCH   = 84288
BSTAR          = .97428E-4
MEAN_MOTION_DOT = .794E-5
MEAN_MOTION_DDOT = 0

CCSDS_OMM_VERS = 2.0
CREATION_DATE  = 
ORIGINATOR     = 

OBJECT_NAME    = ERS-1
OBJECT_ID      = 1991-050A
CENTER_NAME    = EARTH
REF_FRAME      = TEME
TIME_SYSTEM    = UTC
MEAN_ELEMENT_THEORY = SGP/SGP4

EPOCH          = 2025-12-31T00:27:40.760064
MEAN_MOTION    = 14.39381368
ECCENTRICITY   = .0032738
INCLINATION    = 98.7899
RA_OF_ASC_NODE = 16.5307
ARG_OF_PERICENTER = 47.3522
MEAN_ANOMALY   = 313.0415

EPHEMERIS_TYPE = 0
CLASSIFICATION_TYPE = U
NORAD_CAT_ID   = 21574
ELEMENT_SET_NO = 999
REV_AT_EPOCH   = 80585
BSTAR          = .21941E-3
MEAN_MOTION_DOT = .64E-5
MEAN_MOTION_DDOT = 0

CCSDS_OMM_VERS = 2.0
CREATION_DATE  = 
ORIGINATOR     = 

OBJECT_NAME    = ARIANE 40 R/B
OBJECT_ID      = 1991-050F
CENTER_NAME    = EARTH
REF_FRAME      = TEME
TIME_SYSTEM    = UTC
MEAN_ELEMENT_THEORY = SGP/SGP4

EPOCH          = 2025-12-30T17:56:59.741952
MEAN_MOTION    = 14.42829678
ECCENTRICITY   = .00019695
INCLINATION    = 98.2141
RA_OF_ASC_NODE = 54.5264
ARG_OF_PERICENTER = 288.2741
MEAN_ANOMALY   = 71.8235

EPHEMERIS_TYPE = 0
CLASSIFICATION_TYPE = U
NORAD_CAT_ID   = 21610
ELEMENT_SET_NO = 999
REV_AT_EPOCH   = 80905
BSTAR          = .1867078E-3
MEAN_MOTION_DOT = .581E-5
MEAN_MOTION_DDOT = 0

CCSDS_OMM_VERS = 2.0
CREATION_DATE  = 
ORIGINATOR     = 

OBJECT_NAME    = INTERCOSMOS 25
OBJECT_ID      = 1991-086A
CENTER_NAME    = EARTH
REF_FRAME      = TEME
TIME_SYSTEM    = UTC
MEAN_ELEMENT_THEORY = SGP/SGP4

EPOCH          = 2025-12-30T23:08:05.441568
MEAN_MOTION    = 12.11804454
ECCENTRICITY   = .14861439
INCLINATION    = 82.6077
RA_OF_ASC_NODE = 351.5521
ARG_OF_PERICENTER = 265.0903
MEAN_ANOMALY   = 77.9516

EPHEMERIS_TYPE = 0
CLASSIFICATION_TYPE = U
NORAD_CAT_ID   = 21819
ELEMENT_SET_NO = 999
REV_AT_EPOCH   = 48836
BSTAR          = .51400432E-3
MEAN_MOTION_DOT = .2581E-4
MEAN_MOTION_DDOT = 0

CCSDS_OMM_VERS = 2.0
CREATION_DATE  = 
ORIGINATOR     = 

OBJECT_NAME    = SL-8 R/B
OBJECT_ID      = 1992-008B
CENTER_NAME    = EARTH
REF_FRAME      = TEME
TIME_SYSTEM    = UTC
MEAN_ELEMENT_THEORY = SGP/SGP4

EPOCH          = 2025-12-31T03:20:34.158336
MEAN_MOTION    = 13.75963509
ECCENTRICITY   = .003403
INCLINATION    = 82.9278
RA_OF_ASC_NODE = 318.7608
ARG_OF_PERICENTER = 328.3477
MEAN_ANOMALY   = 41.8181

EPHEMERIS_TYPE = 0
CLASSIFICATION_TYPE = U
NORAD_CAT_ID   = 21876
ELEMENT_SET_NO = 999
REV_AT_EPOCH   = 69999
BSTAR          = .16239E-3
MEAN_MOTION_DOT = .173E-5
MEAN_MOTION_DDOT = 0

CCSDS_OMM_VERS = 2.0
CREATION_DATE  = 
ORIGINATOR     = 

OBJECT_NAME    = SL-8 R/B
OBJECT_ID      = 1992-020B
CENTER_NAME    = EARTH
REF_FRAME      = TEME
TIME_SYSTEM    = UTC
MEAN_ELEMENT_THEORY = SGP/SGP4

EPOCH          = 2025-12-30T23:06:43.316640
MEAN_MOTION    = 13.75532638
ECCENTRICITY   = .00299508
INCLINATION    = 82.9289
RA_OF_ASC_NODE = 204.7849
ARG_OF_PERICENTER = 128.1631
MEAN_ANOMALY   = 340.8801

EPHEMERIS_TYPE = 0
CLASSIFICATION_TYPE = U
NORAD_CAT_ID   = 21938
ELEMENT_SET_NO = 999
REV_AT_EPOCH   = 69168
BSTAR          = .23210331E-3
MEAN_MOTION_DOT = .24E-5
MEAN_MOTION_DDOT = 0

CCSDS_OMM_VERS = 2.0
CREATION_DATE  = 
ORIGINATOR     = 

OBJECT_NAME    = USA 81
OBJECT_ID      = 1992-023A
CENTER_NAME    = EARTH
REF_FRAME      = TEME
TIME_SYSTEM    = UTC
MEAN_ELEMENT_THEORY = SGP/SGP4

EPOCH          = 2025-12-30T20:21:26.189856
MEAN_MOTION    = 14.32334958
ECCENTRICITY   = .00010781
INCLINATION    = 85.0086
RA_OF_ASC_NODE = 171.1325
ARG_OF_PERICENTER = 99.9449
MEAN_ANOMALY   = 260.1866

EPHEMERIS_TYPE = 0
CLASSIFICATION_TYPE = U
NORAD_CAT_ID   = 21949
ELEMENT_SET_NO = 999
REV_AT_EPOCH   = 8493
BSTAR          = .13491933E-3
MEAN_MOTION_DOT = .384E-5
MEAN_MOTION_DDOT = 0

CCSDS_OMM_VERS = 2.0
CREATION_DATE  = 
ORIGINATOR     = 

OBJECT_NAME    = COSMOS 2219
OBJECT_ID      = 1992-076A
CENTER_NAME    = EARTH
REF_FRAME      = TEME
TIME_SYSTEM    = UTC
MEAN_ELEMENT_THEORY = SGP/SGP4

EPOCH          = 2025-12-30T20:00:45.631008
MEAN_MOTION    = 14.14073347
ECCENTRICITY   = .0019813
INCLINATION    = 71.0596
RA_OF_ASC_NODE = 162.0084
ARG_OF_PERICENTER = 301.9686
MEAN_ANOMALY   = 57.9510

EPHEMERIS_TYPE = 0
CLASSIFICATION_TYPE = U
NORAD_CAT_ID   = 22219
ELEMENT_SET_NO = 999
REV_AT_EPOCH   = 70864
BSTAR          = .26087E-3
MEAN_MOTION_DOT = .45E-5
MEAN_MOTION_DDOT = 0

CCSDS_OMM_VERS = 2.0
CREATION_DATE  = 
ORIGINATOR     = 

OBJECT_NAME    = SL-16 R/B
OBJECT_ID      = 1992-076B
CENTER_NAME    = EARTH
REF_FRAME      = TEME
TIME_SYSTEM    = UTC
MEAN_ELEMENT_THEORY = SGP/SGP4

EPOCH          = 2025-12-31T03:32:25.620000
MEAN_MOTION    = 14.16845806
ECCENTRICITY   = .0013906
INCLINATION    = 71.0012
RA_OF_ASC_NODE = 332.7554
ARG_OF_PERICENTER = 209.3501
MEAN_ANOMALY   = 230.1573

EPHEMERIS_TYPE = 0
CLASSIFICATION_TYPE = U
NORAD_CAT_ID   = 22220
ELEMENT_SET_NO = 999
REV_AT_EPOCH   = 71212
BSTAR          = -.40795E-4
MEAN_MOTION_DOT = -.13E-5
MEAN_MOTION_DDOT = 0

CCSDS_OMM_VERS = 2.0
CREATION_DATE  = 
ORIGINATOR     = 

OBJECT_NAME    = COSMOS 2221
OBJECT_ID      = 1992-080A
CENTER_NAME    = EARTH
REF_FRAME      = TEME
TIME_SYSTEM    = UTC
MEAN_ELEMENT_THEORY = SGP/SGP4

EPOCH          = 2025-12-30T22:43:06.298752
MEAN_MOTION    = 14.95845999
ECCENTRICITY   = .00161829
INCLINATION    = 82.5041
RA_OF_ASC_NODE = 344.8968
ARG_OF_PERICENTER = 66.3322
MEAN_ANOMALY   = 293.9596

EPHEMERIS_TYPE = 0
CLASSIFICATION_TYPE = U
NORAD_CAT_ID   = 22236
ELEMENT_SET_NO = 999
REV_AT_EPOCH   = 77051
BSTAR          = .36515995E-3
MEAN_MOTION_DOT = .4114E-4
MEAN_MOTION_DDOT = 0

CCSDS_OMM_VERS = 2.0
CREATION_DATE  = 
ORIGINATOR     = 

OBJECT_NAME    = SL-16 R/B
OBJECT_ID      = 1992-093B
CENTER_NAME    = EARTH
REF_FRAME      = TEME
TIME_SYSTEM    = UTC
MEAN_ELEMENT_THEORY = SGP/SGP4

EPOCH          = 2025-12-30T20:03:35.527968
MEAN_MOTION    = 14.15434850
ECCENTRICITY   = .0002806
INCLINATION    = 71.0212
RA_OF_ASC_NODE = 148.8090
ARG_OF_PERICENTER = 18.3933
MEAN_ANOMALY   = 341.7291

EPHEMERIS_TYPE = 0
CLASSIFICATION_TYPE = U
NORAD_CAT_ID   = 22285
ELEMENT_SET_NO = 999
REV_AT_EPOCH   = 70341
BSTAR          = -.52623E-4
MEAN_MOTION_DOT = -.15E-5
MEAN_MOTION_DDOT = 0

CCSDS_OMM_VERS = 2.0
CREATION_DATE  = 
ORIGINATOR     = 

OBJECT_NAME    = COSMOS 2228
OBJECT_ID      = 1992-094A
CENTER_NAME    = EARTH
REF_FRAME      = TEME
TIME_SYSTEM    = UTC
MEAN_ELEMENT_THEORY = SGP/SGP4

EPOCH          = 2025-12-31T03:23:48.972192
MEAN_MOTION    = 14.96828594
ECCENTRICITY   = .0018208
INCLINATION    = 82.5189
RA_OF_ASC_NODE = 302.9270
ARG_OF_PERICENTER = 167.0164
MEAN_ANOMALY   = 193.1531

EPHEMERIS_TYPE = 0
CLASSIFICATION_TYPE = U
NORAD_CAT_ID   = 22286
ELEMENT_SET_NO = 999
REV_AT_EPOCH   = 76580
BSTAR          = .35627E-3
MEAN_MOTION_DOT = .4119E-4
MEAN_MOTION_DDOT = 0

