SL-14 R/B               
1 21423U 91042B   25364.87993425  .00000794  00000+0  97428-4 0  9998
2 21423  82.4936 284.7142 0018542 105.6802 254.6459 14.81758246842887
ERS-1                   
1 21574U 91050A   25365.01922176  .00000640  00000+0  21941-3 0  9992
2 21574  98.7899  16.5307 0032738  47.3522 313.0415 14.39381368805858
ARIANE 40 R/B           
1 21610U 91050F   25364.74791368  .00000581  00000+0  18671-3 0  9999
2 21610  98.2141  54.5264 0001969 288.2741  71.8235 14.42829678809059
INTERCOSMOS 25          
1 21819U 91086A   25364.96395187  .00002581  00000+0  51400-3 0  9991
2 21819  82.6077 351.5521 1486143 265.0903  77.9516 12.11804454488361
SL-8 R/B                
1 21876U 92008B   25365.13928424  .00000173  00000+0  16239-3 0  9991
2 21876  82.9278 318.7608 0034030 328.3477  41.8181 13.75963509699992
SL-8 R/B                
1 21938U 92020B   25364.96300135  .00000240  00000+0  23210-3 0  9999
2 21938  82.9289 204.7849 0029950 128.1631 340.8801 13.75532638691681
USA 81                  
1 21949U 92023A   25364.84821979  .00000384  00000+0  13492-3 0  9995
2 21949  85.0086 171.1325 0001078  99.9449 260.1866 14.32334958 84939
COSMOS 2219             
1 22219U 92076A   25364.83386147  .00000450  00000+0  26087-3 0  9994
2 22219  71.0596 162.0084 0019813 301.9686  57.9510 14.14073347708648
SL-16 R/B               
1 22220U 92076B   25365.14751875 -.00000130  00000+0 -40795-4 0  9995
2 22220  71.0012 332.7554 0013906 209.3501 230.1573 14.16845806712126
COSMOS 2221             
1 22236U 92080A   25364.94660068  .00004114  00000+0  36516-3 0  9996
2 22236  82.5041 344.8968 0016182  66.3322 293.9596 14.95845999770515
SL-16 R/B               
1 22285U 92093B   25364.83582787 -.00000150  00000+0 -52623-4 0  9999
2 22285  71.0212 148.8090 0002806  18.3933 341.7291 14.15434850703414
COSMOS 2228             
1 22286U 92094A   25365.14153903  .00004119  00000+0  35627-3 0  9991
2 22286  82.5189 302.9270 0018208 167.0164 193.1531 14.96828594765807
